ORBCOMM FM40 [-]        
1 33065U 08031F   17345.95218281 -.00000002  00000-0  30729-4 0  9993
2 33065  48.4460 314.2960 0008496 216.7422 180.1194 14.73162275509074
